[{"OBJECT_NAME":"PULSAR-0","OBJECT_ID":"2025-135P","EPOCH":"2026-03-09T21:02:58.177536","MEAN_MOTION":15.1958967,"ECCENTRICITY":0.00037333,"INCLINATION":97.4569,"RA_OF_ASC_NODE":184.5909,"ARG_OF_PERICENTER":149.6553,"MEAN_ANOMALY":210.4899,"EPHEMERIS_TYPE":0,"CLASSIFICATION_TYPE":"U","NORAD_CAT_ID":64541,"ELEMENT_SET_NO":999,"REV_AT_EPOCH":3974,"BSTAR":0.00023616879,"MEAN_MOTION_DOT":4.959e-5,"MEAN_MOTION_DDOT":0},{"OBJECT_NAME":"GEESAT-4 08","OBJECT_ID":"2025-170H","EPOCH":"2026-03-09T21:04:12.427104","MEAN_MOTION":15.14705127,"ECCENTRICITY":0.00114102,"INCLINATION":49.9764,"RA_OF_ASC_NODE":229.0077,"ARG_OF_PERICENTER":340.9051,"MEAN_ANOMALY":19.1471,"EPHEMERIS_TYPE":0,"CLASSIFICATION_TYPE":"U","NORAD_CAT_ID":65126,"ELEMENT_SET_NO":999,"REV_AT_EPOCH":3229,"BSTAR":0.00074081208,"MEAN_MOTION_DOT":0.00013648,"MEAN_MOTION_DDOT":0}]
